0 SL-16 DEB
1 23302U 92093JH  13281.15249556  .00000798  00000-0  50345-3 0  2442
2 23302 071.1296 336.6677 0126663 162.4218 229.6385 14.03204162  2228
0 SL-16 DEB
1 23302U 92093JH  13289.06471156  .00001001  00000-0  62491-3 0  2457
2 23302 071.1285 320.4741 0125837 150.4068 238.8043 14.03228332  3332
0 SL-16 DEB
1 23302U 92093JH  13290.51444426  .00001010  00000-0  63065-3 0  2468
2 23302 071.1284 317.5069 0125828 148.1585 002.3655 14.03231074  3531
0 SL-16 DEB
1 23302U 92093JH  13292.51056382  .00001231  00000-0  76249-3 0  2474
2 23302 071.1285 313.4205 0125777 145.0624 006.1176 14.03233688  3816
0 SL-16 DEB
1 23302U 92093JH  13294.05541718  .00001385  00000-0  85466-3 0  2489
2 23302 071.1285 310.2587 0125717 142.6750 250.2241 14.03236735  4037
